ONEWEB-0504             
1 54122U 22138K   25158.51749047 -.00000012  00000+0 -63411-4 0  9991
2 54122  87.9225  19.4402 0001503  88.9155 271.2150 13.19725823127418
ONEWEB-0505             
1 54123U 22138L   25158.59013980  .00000013  00000+0 -69470-8 0  9995
2 54123  87.9224  19.4158 0001441 102.4295 257.6999 13.19726664127406
ONEWEB-0506             
1 54124U 22138M   25158.56487790  .00000037  00000+0  60719-4 0  9995
2 54124  87.9223  19.4177 0001661  89.4717 270.6606 13.19725708127390
ONEWEB-0507             
1 54125U 22138N   25158.50957629 -.00000929  00000+0 -23538-2 0  9991
2 54125  87.9233  19.4800 0001735  91.3445 268.7887 13.19730141127438
ONEWEB-0508             
1 54126U 22138P   25158.58225426  .00000042  00000+0  72511-4 0  9994
2 54126  87.9230  19.4490 0001757  98.9105 261.2226 13.19725539127420
ONEWEB-0509             
1 54127U 22138Q   25158.55697482  .00000032  00000+0  46932-4 0  9994
2 54127  87.9223  19.4169 0001704  88.3271 271.8057 13.19725548127390
ONEWEB-0510             
1 54128U 22138R   25158.51415259 -.00000008  00000+0 -51252-4 0  9997
2 54128  87.9261 349.0562 0002097  74.2597 285.8768 13.20771648129821
ONEWEB-0511             
1 54129U 22138S   25158.55381776  .00000066  00000+0  13289-3 0  9997
2 54129  87.9223  19.4233 0001537  78.5842 281.5463 13.19722617127420
